STARLINK-4567           
1 53970U 22125G   24308.59792567  .00000883  00000+0  73584-4 0  9992
2 53970  53.2161 263.7536 0001036  88.9715 271.1396 15.08828593115267
STARLINK-4639           
1 53971U 22125H   24308.59193320  .00002104  00000+0  15029-3 0  9992
2 53971  53.2171 268.7011 0001267  89.0403 271.0734 15.08835191115182
STARLINK-5156           
1 53973U 22125K   24308.58462918 -.00007803  00000+0 -47359-3 0  9999
2 53973  53.2183 268.6512 0001938 104.4829 255.6379 15.08768186115183
STARLINK-5159           
1 53974U 22125L   24308.55325430  .00003841  00000+0  25929-3 0  9999
2 53974  53.2175 248.5174 0002612  74.7045 285.4236 15.08844989115465
STARLINK-5137           
1 53975U 22125M   24308.28874067  .00000446  00000+0  46116-4 0  9995
2 53975  53.2171 264.6774 0001383 102.2797 257.8350 15.08846944115218
STARLINK-5134           
1 53976U 22125N   24308.53490764  .00002952  00000+0  20340-3 0  9996
2 53976  53.2165 249.1115 0001046  73.5397 286.5710 15.08852770115450
STARLINK-5094           
1 53977U 22125P   24308.60528182  .00029059  00000+0  18342-2 0  9996
2 53977  53.2173 263.7896 0001456  81.9918 278.1239 15.08883243115255
STARLINK-5148           
1 53978U 22125Q   24308.58686932  .00004260  00000+0  28553-3 0  9995
2 53978  53.2155 263.6806 0001020  85.9165 274.1944 15.08848338115256
STARLINK-5123           
1 53979U 22125R   24308.59423436  .00006651  00000+0  43538-3 0  9991
2 53979  53.2169 263.7252 0001703  74.0232 286.0947 15.08855558115257
STARLINK-5133           
1 53980U 22125S   24308.30347878  .00019933  00000+0  12662-2 0  9997
2 53980  53.2173 264.7521 0001509  86.4429 273.6735 15.08861007115212
STARLINK-5149           
1 53981U 22125T   24308.56799629  .00002414  00000+0  16974-3 0  9998
2 53981  53.2170 248.6270 0001567  80.5750 279.5419 15.08839232115464
STARLINK-5120           
1 53982U 22125U   24308.59654351  .00001041  00000+0  83475-4 0  9990
2 53982  53.2180 258.7562 0001315  97.1753 262.9389 15.08839088115315
STARLINK-5103           
1 53983U 22125V   24308.57536150  .00004887  00000+0  32491-3 0  9997
2 53983  53.2150 248.6519 0001686  69.7933 290.3240 15.08840265115465
STARLINK-5142           
1 53984U 22125W   24308.60759074  .00007687  00000+0  50037-3 0  9991
2 53984  53.2164 258.8219 0001467  84.1295 275.9864 15.08854166115321
STARLINK-5147           
1 53985U 22125X   24308.15128947  .00002297  00000+0  16246-3 0  9997
2 53985  53.2169 260.9484 0001506  95.5956 264.5208 15.08822761115321
