[
	{
		"OBJECT_NAME": "STARLINK-4567",
		"OBJECT_ID": "2022-125G",
		"EPOCH": "2024-11-03T14:21:00.777888",
		"MEAN_MOTION": 15.08828593,
		"ECCENTRICITY": 0.0001036,
		"INCLINATION": 53.2161,
		"RA_OF_ASC_NODE": 263.7536,
		"ARG_OF_PERICENTER": 88.9715,
		"MEAN_ANOMALY": 271.1396,
		"EPHEMERIS_TYPE": 0,
		"CLASSIFICATION_TYPE": "U",
		"NORAD_CAT_ID": 53970,
		"ELEMENT_SET_NO": 999,
		"REV_AT_EPOCH": 11526,
		"BSTAR": 7.3584e-5,
		"MEAN_MOTION_DOT": 8.83e-6,
		"MEAN_MOTION_DDOT": 0
	},
	{
		"OBJECT_NAME": "STARLINK-4639",
		"OBJECT_ID": "2022-125H",
		"EPOCH": "2024-11-03T14:12:23.028480",
		"MEAN_MOTION": 15.08835191,
		"ECCENTRICITY": 0.0001267,
		"INCLINATION": 53.2171,
		"RA_OF_ASC_NODE": 268.7011,
		"ARG_OF_PERICENTER": 89.0403,
		"MEAN_ANOMALY": 271.0734,
		"EPHEMERIS_TYPE": 0,
		"CLASSIFICATION_TYPE": "U",
		"NORAD_CAT_ID": 53971,
		"ELEMENT_SET_NO": 999,
		"REV_AT_EPOCH": 11518,
		"BSTAR": 0.00015029,
		"MEAN_MOTION_DOT": 2.104e-5,
		"MEAN_MOTION_DDOT": 0
	},
	{
		"OBJECT_NAME": "STARLINK-5156",
		"OBJECT_ID": "2022-125K",
		"EPOCH": "2024-11-03T14:01:51.961152",
		"MEAN_MOTION": 15.08768186,
		"ECCENTRICITY": 0.0001938,
		"INCLINATION": 53.2183,
		"RA_OF_ASC_NODE": 268.6512,
		"ARG_OF_PERICENTER": 104.4829,
		"MEAN_ANOMALY": 255.6379,
		"EPHEMERIS_TYPE": 0,
		"CLASSIFICATION_TYPE": "U",
		"NORAD_CAT_ID": 53973,
		"ELEMENT_SET_NO": 999,
		"REV_AT_EPOCH": 11518,
		"BSTAR": -0.00047359,
		"MEAN_MOTION_DOT": -7.803e-5,
		"MEAN_MOTION_DDOT": 0
	},
	{
		"OBJECT_NAME": "STARLINK-5159",
		"OBJECT_ID": "2022-125L",
		"EPOCH": "2024-11-03T13:16:41.171520",
		"MEAN_MOTION": 15.08844989,
		"ECCENTRICITY": 0.0002612,
		"INCLINATION": 53.2175,
		"RA_OF_ASC_NODE": 248.5174,
		"ARG_OF_PERICENTER": 74.7045,
		"MEAN_ANOMALY": 285.4236,
		"EPHEMERIS_TYPE": 0,
		"CLASSIFICATION_TYPE": "U",
		"NORAD_CAT_ID": 53974,
		"ELEMENT_SET_NO": 999,
		"REV_AT_EPOCH": 11546,
		"BSTAR": 0.00025929,
		"MEAN_MOTION_DOT": 3.841e-5,
		"MEAN_MOTION_DDOT": 0
	},
	{
		"OBJECT_NAME": "STARLINK-5137",
		"OBJECT_ID": "2022-125M",
		"EPOCH": "2024-11-03T06:55:47.193888",
		"MEAN_MOTION": 15.08846944,
		"ECCENTRICITY": 0.0001383,
		"INCLINATION": 53.2171,
		"RA_OF_ASC_NODE": 264.6774,
		"ARG_OF_PERICENTER": 102.2797,
		"MEAN_ANOMALY": 257.835,
		"EPHEMERIS_TYPE": 0,
		"CLASSIFICATION_TYPE": "U",
		"NORAD_CAT_ID": 53975,
		"ELEMENT_SET_NO": 999,
		"REV_AT_EPOCH": 11521,
		"BSTAR": 4.6116e-5,
		"MEAN_MOTION_DOT": 4.46e-6,
		"MEAN_MOTION_DDOT": 0
	},
	{
		"OBJECT_NAME": "STARLINK-5134",
		"OBJECT_ID": "2022-125N",
		"EPOCH": "2024-11-03T12:50:16.020096",
		"MEAN_MOTION": 15.0885277,
		"ECCENTRICITY": 0.0001046,
		"INCLINATION": 53.2165,
		"RA_OF_ASC_NODE": 249.1115,
		"ARG_OF_PERICENTER": 73.5397,
		"MEAN_ANOMALY": 286.571,
		"EPHEMERIS_TYPE": 0,
		"CLASSIFICATION_TYPE": "U",
		"NORAD_CAT_ID": 53976,
		"ELEMENT_SET_NO": 999,
		"REV_AT_EPOCH": 11545,
		"BSTAR": 0.0002034,
		"MEAN_MOTION_DOT": 2.952e-5,
		"MEAN_MOTION_DDOT": 0
	},
	{
		"OBJECT_NAME": "STARLINK-5094",
		"OBJECT_ID": "2022-125P",
		"EPOCH": "2024-11-03T14:31:36.349248",
		"MEAN_MOTION": 15.08883243,
		"ECCENTRICITY": 0.0001456,
		"INCLINATION": 53.2173,
		"RA_OF_ASC_NODE": 263.7896,
		"ARG_OF_PERICENTER": 81.9918,
		"MEAN_ANOMALY": 278.1239,
		"EPHEMERIS_TYPE": 0,
		"CLASSIFICATION_TYPE": "U",
		"NORAD_CAT_ID": 53977,
		"ELEMENT_SET_NO": 999,
		"REV_AT_EPOCH": 11525,
		"BSTAR": 0.0018342,
		"MEAN_MOTION_DOT": 0.00029059,
		"MEAN_MOTION_DDOT": 0
	},
	{
		"OBJECT_NAME": "STARLINK-5148",
		"OBJECT_ID": "2022-125Q",
		"EPOCH": "2024-11-03T14:05:05.509248",
		"MEAN_MOTION": 15.08848338,
		"ECCENTRICITY": 0.000102,
		"INCLINATION": 53.2155,
		"RA_OF_ASC_NODE": 263.6806,
		"ARG_OF_PERICENTER": 85.9165,
		"MEAN_ANOMALY": 274.1944,
		"EPHEMERIS_TYPE": 0,
		"CLASSIFICATION_TYPE": "U",
		"NORAD_CAT_ID": 53978,
		"ELEMENT_SET_NO": 999,
		"REV_AT_EPOCH": 11525,
		"BSTAR": 0.00028553,
		"MEAN_MOTION_DOT": 4.26e-5,
		"MEAN_MOTION_DDOT": 0
	},
	{
		"OBJECT_NAME": "STARLINK-5123",
		"OBJECT_ID": "2022-125R",
		"EPOCH": "2024-11-03T14:15:41.848704",
		"MEAN_MOTION": 15.08855558,
		"ECCENTRICITY": 0.0001703,
		"INCLINATION": 53.2169,
		"RA_OF_ASC_NODE": 263.7252,
		"ARG_OF_PERICENTER": 74.0232,
		"MEAN_ANOMALY": 286.0947,
		"EPHEMERIS_TYPE": 0,
		"CLASSIFICATION_TYPE": "U",
		"NORAD_CAT_ID": 53979,
		"ELEMENT_SET_NO": 999,
		"REV_AT_EPOCH": 11525,
		"BSTAR": 0.00043538,
		"MEAN_MOTION_DOT": 6.651e-5,
		"MEAN_MOTION_DDOT": 0
	},
	{
		"OBJECT_NAME": "STARLINK-5133",
		"OBJECT_ID": "2022-125S",
		"EPOCH": "2024-11-03T07:17:00.566592",
		"MEAN_MOTION": 15.08861007,
		"ECCENTRICITY": 0.0001509,
		"INCLINATION": 53.2173,
		"RA_OF_ASC_NODE": 264.7521,
		"ARG_OF_PERICENTER": 86.4429,
		"MEAN_ANOMALY": 273.6735,
		"EPHEMERIS_TYPE": 0,
		"CLASSIFICATION_TYPE": "U",
		"NORAD_CAT_ID": 53980,
		"ELEMENT_SET_NO": 999,
		"REV_AT_EPOCH": 11521,
		"BSTAR": 0.0012662,
		"MEAN_MOTION_DOT": 0.00019933,
		"MEAN_MOTION_DDOT": 0
	},
	{
		"OBJECT_NAME": "STARLINK-5149",
		"OBJECT_ID": "2022-125T",
		"EPOCH": "2024-11-03T13:37:54.879456",
		"MEAN_MOTION": 15.08839232,
		"ECCENTRICITY": 0.0001567,
		"INCLINATION": 53.217,
		"RA_OF_ASC_NODE": 248.627,
		"ARG_OF_PERICENTER": 80.575,
		"MEAN_ANOMALY": 279.5419,
		"EPHEMERIS_TYPE": 0,
		"CLASSIFICATION_TYPE": "U",
		"NORAD_CAT_ID": 53981,
		"ELEMENT_SET_NO": 999,
		"REV_AT_EPOCH": 11546,
		"BSTAR": 0.00016974,
		"MEAN_MOTION_DOT": 2.414e-5,
		"MEAN_MOTION_DDOT": 0
	},
	{
		"OBJECT_NAME": "STARLINK-5120",
		"OBJECT_ID": "2022-125U",
		"EPOCH": "2024-11-03T14:19:01.359264",
		"MEAN_MOTION": 15.08839088,
		"ECCENTRICITY": 0.0001315,
		"INCLINATION": 53.218,
		"RA_OF_ASC_NODE": 258.7562,
		"ARG_OF_PERICENTER": 97.1753,
		"MEAN_ANOMALY": 262.9389,
		"EPHEMERIS_TYPE": 0,
		"CLASSIFICATION_TYPE": "U",
		"NORAD_CAT_ID": 53982,
		"ELEMENT_SET_NO": 999,
		"REV_AT_EPOCH": 11531,
		"BSTAR": 8.3475e-5,
		"MEAN_MOTION_DOT": 1.041e-5,
		"MEAN_MOTION_DDOT": 0
	},
	{
		"OBJECT_NAME": "STARLINK-5103",
		"OBJECT_ID": "2022-125V",
		"EPOCH": "2024-11-03T13:48:31.233600",
		"MEAN_MOTION": 15.08840265,
		"ECCENTRICITY": 0.0001686,
		"INCLINATION": 53.215,
		"RA_OF_ASC_NODE": 248.6519,
		"ARG_OF_PERICENTER": 69.7933,
		"MEAN_ANOMALY": 290.324,
		"EPHEMERIS_TYPE": 0,
		"CLASSIFICATION_TYPE": "U",
		"NORAD_CAT_ID": 53983,
		"ELEMENT_SET_NO": 999,
		"REV_AT_EPOCH": 11546,
		"BSTAR": 0.00032491,
		"MEAN_MOTION_DOT": 4.887e-5,
		"MEAN_MOTION_DDOT": 0
	},
	{
		"OBJECT_NAME": "STARLINK-5142",
		"OBJECT_ID": "2022-125W",
		"EPOCH": "2024-11-03T14:34:55.839936",
		"MEAN_MOTION": 15.08854166,
		"ECCENTRICITY": 0.0001467,
		"INCLINATION": 53.2164,
		"RA_OF_ASC_NODE": 258.8219,
		"ARG_OF_PERICENTER": 84.1295,
		"MEAN_ANOMALY": 275.9864,
		"EPHEMERIS_TYPE": 0,
		"CLASSIFICATION_TYPE": "U",
		"NORAD_CAT_ID": 53984,
		"ELEMENT_SET_NO": 999,
		"REV_AT_EPOCH": 11532,
		"BSTAR": 0.00050037,
		"MEAN_MOTION_DOT": 7.687e-5,
		"MEAN_MOTION_DDOT": 0
	},
	{
		"OBJECT_NAME": "STARLINK-5147",
		"OBJECT_ID": "2022-125X",
		"EPOCH": "2024-11-03T03:37:51.410208",
		"MEAN_MOTION": 15.08822761,
		"ECCENTRICITY": 0.0001506,
		"INCLINATION": 53.2169,
		"RA_OF_ASC_NODE": 260.9484,
		"ARG_OF_PERICENTER": 95.5956,
		"MEAN_ANOMALY": 264.5208,
		"EPHEMERIS_TYPE": 0,
		"CLASSIFICATION_TYPE": "U",
		"NORAD_CAT_ID": 53985,
		"ELEMENT_SET_NO": 999,
		"REV_AT_EPOCH": 11532,
		"BSTAR": 0.00016246,
		"MEAN_MOTION_DOT": 2.297e-5,
		"MEAN_MOTION_DDOT": 0
	}
]
